OBJECT_NAME,OBJECT_ID,EPOCH,MEAN_MOTION,ECCENTRICITY,INCLINATION,RA_OF_ASC_NODE,ARG_OF_PERICENTER,MEAN_ANOMALY,EPHEMERIS_TYPE,CLASSIFICATION_TYPE,NORAD_CAT_ID,ELEMENT_SET_NO,REV_AT_EPOCH,BSTAR,MEAN_MOTION_DOT,MEAN_MOTION_DDOT
CMS-01,2020-099A,2026-07-15T18:53:40.502112,1.00270813,.0003452,0.0764,90.8059,175.7813,33.4482,0,U,47256,999,2048,0,-.175E-5,0
TURKSAT 5A,2021-001A,2026-07-14T22:06:08.283744,1.00271052,.0000214,0.0186,72.0805,188.2412,34.9010,0,U,47306,999,2024,0,.145E-5,0
TIANTONG-1 3,2021-003A,2026-07-15T20:36:03.671712,1.00270101,.0003016,1.7359,341.0826,142.5491,200.6093,0,U,47321,999,2024,0,-.163E-5,0
TJS-6,2021-010A,2026-07-15T19:21:03.963168,1.00272730,.0003037,0.1791,261.6742,241.4329,259.2715,0,U,47613,999,2009,0,.32E-6,0
SBIRS GEO-5 (USA 315),2021-042A,2026-07-15T18:56:51.282816,1.00270735,.0001443,5.0680,329.3413,153.6526,188.6528,0,U,48618,999,1905,0,-.274E-5,0
FENGYUN 4B,2021-047A,2026-07-15T20:42:35.253792,1.00270839,.0007172,0.2219,79.8887,269.4524,359.5043,0,U,48808,999,1885,0,-.34E-5,0
SXM-8,2021-049A,2026-07-13T03:24:05.762304,1.00271054,.00054346,0.0171,42.0890,348.2910,226.5183,0,U,48838,999,1884,0,-.207E-5,0
TIANLIAN 1-05,2021-063A,2026-07-15T20:50:38.608224,1.00272385,.0001017,1.6659,80.4582,90.0113,92.7461,0,U,49011,999,1836,0,.97E-6,0
STAR ONE D2,2021-069A,2026-07-15T13:01:56.172864,1.00267571,.0002583,0.0117,29.9249,103.5107,285.3561,0,U,49055,999,1822,0,0,0
EUTELSAT QUANTUM,2021-069B,2026-07-15T20:26:19.605120,1.00271591,.0002041,0.0092,3.0799,106.0902,178.7801,0,U,49056,999,1821,0,.116E-5,0
ZHONGXING-2E,2021-071A,2026-07-15T18:58:06.163104,1.00267862,.000127,0.0196,247.2311,257.5799,171.4271,0,U,49062,999,1832,0,0,0
TJS-7,2021-077A,2026-07-15T21:42:30.426912,1.00269214,.0002954,0.2836,263.9621,107.1694,148.7091,0,U,49115,999,983,0,-.133E-5,0
CHINASAT 9B,2021-080A,2026-07-15T20:41:42.838368,1.00268357,.0002158,0.0575,248.9861,256.3876,200.1429,0,U,49125,999,1793,0,-.322E-5,0
SHIJIAN-21 (SJ-21),2021-094A,2026-07-15T18:22:10.014816,1.00277668,.0051634,5.1787,61.0048,168.9649,107.0876,0,U,49330,999,564,0,-.36E-5,0
SES-17,2021-095A,2026-07-15T19:06:42.334848,1.00269625,.0000786,0.0222,46.6522,69.9568,36.6012,0,U,49332,999,1814,0,-.282E-5,0
SYRACUSE 4A,2021-095B,2026-07-15T11:52:30.592992,1.00269336,.000157,0.0256,65.0342,39.4977,52.4480,0,U,49333,999,1823,0,0,0
QZS-1R (MICHIBIKI-1R),2021-096A,2026-07-14T13:49:51.633120,1.00245239,.0754906,37.5157,79.1769,272.2285,280.2291,0,U,49336,999,1728,0,-.304E-5,0
ZHONGXING-1D,2021-114A,2026-07-15T20:49:57.047232,1.00268096,.0000673,0.0485,235.3802,18.7757,122.1994,0,U,49505,999,1710,0,-.347E-5,0
STPSAT-6,2021-118A,2026-07-15T14:32:58.619328,1.00270137,.0000986,0.3922,85.0886,242.8647,71.9516,0,U,49817,999,1685,0,-.55E-6,0
EXPRESS AMU-7,2021-123A,2026-07-15T20:54:04.153824,1.00272461,.0000446,0.0378,261.8181,40.3443,90.0566,0,U,50001,999,1682,0,-.253E-5,0
EXPRESS AMU-3,2021-123B,2026-07-14T21:37:28.346592,1.00276487,.000114,0.0146,349.5084,4.6336,5.8567,0,U,50002,999,731,0,0,0
TIANLIAN 2-02,2021-124A,2026-07-15T19:18:56.665728,1.00270708,.0001644,0.8731,85.6434,162.6475,146.0465,0,U,50005,999,1690,0,-.25E-6,0
TURKSAT 5B,2021-126A,2026-07-13T11:57:10.554912,1.00271883,.00024959,0.0700,338.4739,12.5122,161.6814,0,U,50212,999,1656,0,.142E-5,0
INMARSAT 6-F1,2021-128A,2026-07-15T18:53:40.502112,1.00268477,.000007,0.0164,44.0182,312.5277,304.2658,0,U,50319,999,1654,0,0,0
SHIYAN-12 01 (SY-12 01),2021-129A,2026-07-15T16:58:01.051104,1.00051422,.0002608,3.7461,79.5252,286.1640,219.2302,0,U,50321,999,1678,0,.137E-5,0
SHIYAN-12 02 (SY-12 02),2021-129B,2026-07-15T19:00:48.797280,1.00476956,.0003081,3.7454,79.5238,69.6589,180.4598,0,U,50322,999,1678,0,-.373E-5,0
TJS-9,2021-135A,2026-07-15T20:51:56.857248,1.00272104,.0002148,0.0483,101.1486,328.7754,314.0177,0,U,50574,999,1671,0,-.309E-5,0
GOES 18,2022-021A,2026-07-15T17:51:02.673216,1.00271110,.0000422,0.0207,116.7756,62.7056,244.8565,0,U,51850,999,687,0,.86E-6,0
ZHONGXING-6D,2022-038A,2026-07-13T20:12:48.756672,1.00272740,.00006039,0.0271,235.5038,296.7652,187.7170,0,U,52255,999,1569,0,-.359E-5,0
NILESAT 301,2022-061A,2026-07-15T16:45:28.088064,1.00269551,.0003517,0.0460,359.8776,80.4232,97.6205,0,U,52817,999,1502,0,-.68E-6,0
CMS-02 (GSAT-24),2022-067A,2026-07-14T08:40:35.152608,1.00269800,.00008603,0.0509,231.1001,121.8996,152.3598,0,U,52903,999,1488,0,-.171E-5,0
MEASAT 3D,2022-067B,2026-07-15T18:56:13.843104,1.00271170,.0000565,0.0434,313.6539,65.0818,290.4583,0,U,52904,999,1493,0,-.252E-5,0
SES-22,2022-071A,2026-07-15T16:07:54.191136,1.00271716,.0000816,0.0177,35.3937,71.3283,289.7425,0,U,52933,999,780,0,.94E-6,0
WFOV (USA 332),2022-073A,2026-07-15T17:21:28.006848,1.00266944,.000147,3.7820,78.1657,215.4718,19.5497,0,U,52940,999,1465,0,-.375E-5,0
TIANLIAN 2-03,2022-078A,2026-07-14T03:12:09.361152,1.00273706,.00009262,0.7376,77.4695,4.6577,268.5483,0,U,53100,999,1481,0,.65E-6,0
SBIRS GEO-6 (USA 336),2022-092A,2026-07-15T19:09:42.551424,1.00271228,.000168,3.2103,317.9638,153.2260,248.8763,0,U,53355,999,1452,0,-.299E-5,0
EUTELSAT KONNECT VHTS,2022-110A,2026-07-15T18:30:53.235936,1.00267936,.000289,0.0577,99.2223,1.9189,112.8794,0,U,53765,999,712,0,.6E-7,0
ZHONGXING-1E,2022-112A,2026-07-15T20:36:03.671712,1.00270633,.0000838,0.0198,240.8849,33.7580,49.4879,0,U,53813,999,1413,0,0,0
SES-20,2022-123A,2026-07-15T16:18:08.210016,1.00270459,.0001814,0.0144,64.4819,29.5686,340.9062,0,U,53960,999,1381,0,-.111E-5,0
SES-21,2022-123B,2026-07-15T15:26:42.548064,1.00268623,.0000925,0.0394,38.5159,73.6470,282.0799,0,U,53961,999,749,0,0,0
GALAXY 33 (G-33),2022-128A,2026-07-15T17:52:10.065216,1.00272482,.0001805,0.0109,51.6708,68.9157,308.0435,0,U,54026,999,1402,0,.69E-6,0
GALAXY 34 (G-34),2022-128B,2026-07-15T16:10:38.928288,1.00276610,.0001513,0.0124,38.4274,92.6811,276.0718,0,U,54027,999,1419,0,.48E-6,0
ANGOSAT 2,2022-131A,2026-07-15T18:36:37.686816,1.00272241,.0000206,0.0222,113.2990,116.3358,6.1342,0,U,54033,999,1376,0,.125E-5,0
EUTELSAT HOTBIRD 13F,2022-134A,2026-07-15T18:33:52.948800,1.00270067,.0002021,0.0599,284.0129,72.6239,228.4621,0,U,54048,999,1366,0,.76E-6,0
LDPE-2,2022-144A,2026-07-15T11:20:38.612832,1.00543934,.00023594,5.6794,63.4142,109.0609,160.7234,0,U,54219,999,1212,0,.14E-6,0
EUTELSAT HOTBIRD 13G,2022-146A,2026-07-15T18:33:52.948800,1.00269611,.0001957,0.0179,233.9723,306.9270,44.2112,0,U,54225,999,775,0,0,0
ZHONGXING-19,2022-148A,2026-07-15T19:16:41.880864,1.00270248,.0003224,0.0205,60.0313,81.2674,244.7160,0,U,54230,999,1366,0,0,0
GALAXY 31 (G-31),2022-153A,2026-07-15T16:13:01.199712,1.00271295,.0000994,0.0140,81.9440,37.7464,296.0624,0,U,54243,999,741,0,.3E-7,0
GALAXY 32 (G-32),2022-153B,2026-07-15T11:13:34.324896,1.00271540,.0001319,0.0084,45.5334,354.6231,330.5392,0,U,54244,999,1342,0,-.184E-5,0
EUTELSAT 10B,2022-157A,2026-07-15T15:07:40.293408,1.00269130,.0001538,0.0614,95.2569,14.4780,60.6316,0,U,54259,999,1331,0,.58E-6,0
GALAXY 35 (G-35),2022-170A,2026-07-15T14:38:13.117056,1.00272224,.0001763,0.0172,72.5640,44.1053,303.2186,0,U,54741,999,1317,0,-.172E-5,0
GALAXY 36 (G-36),2022-170B,2026-07-15T14:39:27.997344,1.00270281,.0002397,0.0054,142.8857,316.1422,325.2844,0,U,54742,999,1305,0,-.195E-5,0
METEOSAT-12 (MTG-I1),2022-170C,2026-07-15T18:30:00.821376,1.00267856,.0003828,0.7259,19.8290,81.8399,109.1174,0,U,54743,999,1326,0,-.19E-6,0
SHIJIAN-23 (SJ-23),2023-002A,2026-07-15T18:59:00.412800,1.00076519,.0003428,3.7889,77.9512,271.6051,357.5202,0,U,55131,999,1279,0,-.365E-5,0
APSTAR-6E,2023-005A,2026-07-14T19:34:42.235968,1.00265114,.00021361,0.0207,271.3385,293.8948,155.1380,0,U,55239,999,1896,0,0,0
USA 342,2023-008A,2026-07-09T06:55:38.597952,1.00269378,.0000262,0.0052,352.2306,7.3445,55.4773,0,U,55263,999,1273,0,0,0
LDPE-3A,2023-008B,2026-07-15T19:08:42.645984,0.99149910,.0001527,2.4205,81.3084,76.8806,197.9818,0,U,55264,999,1209,0,-.299E-5,0
ELEKTRO-L 4,2023-016A,2026-07-15T17:22:30.372960,1.00270579,.0001512,0.1191,278.0931,255.4146,186.4742,0,U,55506,999,1261,0,-.69E-6,0
AMAZONAS NEXUS,2023-017A,2026-07-13T18:18:24.198912,1.00268939,.00043642,0.0356,42.7695,42.6416,59.8176,0,U,55508,999,731,0,-.287E-5,0
ZHONGXING-26,2023-023A,2026-07-15T20:48:27.192096,1.00254114,.0002963,0.0611,70.5099,15.8710,284.5491,0,U,55686,999,1251,0,-.365E-5,0
LUCH-5X (OLYMP-K 2),2023-031A,2026-07-15T11:57:15.138432,1.00271236,.0000977,0.0319,96.7468,175.3046,262.5805,0,U,55841,999,1222,0,.23E-6,0
GAOFEN-13 02,2023-036A,2026-07-15T15:10:47.727840,1.00274215,.0003698,1.0278,4.6412,336.5562,328.2138,0,U,55912,999,1237,0,-.228E-5,0
SES-18,2023-038A,2026-07-14T23:11:30.885216,1.00271627,.00008417,0.0536,255.5543,312.6979,329.3569,0,U,55970,999,1238,0,-.11E-5,0
SES-19,2023-038B,2026-07-15T12:43:42.919104,1.00269536,.0001517,0.0103,1.5399,111.9485,235.9011,0,U,55971,999,1237,0,.78E-6,0
INTELSAT 40E (IS-40E),2023-052A,2026-07-15T02:40:15.364416,1.00270706,.00022599,0.0163,72.5692,73.1019,96.3521,0,U,56174,999,1210,0,-.183E-5,0
VIASAT-3 F1,2023-060A,2026-07-14T19:50:08.246112,1.00270317,.00007716,0.0149,26.8771,79.6667,34.7004,0,U,56370,999,1171,0,0,0
ARCTURUS,2023-060B,2026-07-15T18:58:36.116256,1.00594439,.0001024,2.8455,79.5856,131.6503,106.7609,0,U,56371,999,1174,0,-.35E-5,0
GS-1,2023-060C,2026-07-15T18:55:36.403392,1.00266601,.0003374,2.7966,79.4935,280.7224,306.6091,0,U,56372,999,782,0,-.234E-5,0
BEIDOU-3 G4,2023-066A,2026-07-15T20:52:41.784384,1.00272263,.0004908,0.4599,339.1655,186.7535,221.0301,0,U,56564,999,1168,0,-.291E-5,0
ARABSAT-7B (BADR-8),2023-075A,2026-07-14T11:49:49.380096,1.00271079,.0003416,0.0743,30.7036,358.3138,106.7877,0,U,56757,999,1139,0,.137E-5,0
NVS-01 (IRNSS-1J),2023-076A,2026-07-15T19:07:05.303424,1.00264463,.0003535,2.1002,243.0525,6.7118,100.0507,0,U,56759,999,1140,0,-.347E-5,0
NUSANTARA TIGA (SATRIA),2023-086A,2026-07-14T05:33:23.574240,1.00272319,.00026572,0.0345,12.3074,332.6277,176.5079,0,U,57045,999,1003,0,-.241E-5,0
